ONEWEB-0198             
1 48216U 21031G   23308.87244646  .00002906  00000+0  77987-2 0  9991
2 48216  87.8937 119.8923 0001132 101.0801 259.0456 13.14537278122980
ONEWEB-0189             
1 48217U 21031H   23308.88513349  .00002970  00000+0  79703-2 0  9991
2 48217  87.8935 119.8673 0001149 105.1145 255.0112 13.14536178122720
ONEWEB-0196             
1 48218U 21031J   23308.93988763  .00015528  00000+0  41684-1 0  9993
2 48218  87.8924 119.8514 0001375  98.7344 261.3942 13.14659967122736
ONEWEB-0183             
1 48219U 21031K   23308.91286881 -.00008832  00000+0 -23913-1 0  9991
2 48219  87.8931 119.8783 0001755  95.9034 264.2296 13.14405902122822
ONEWEB-0185             
1 48220U 21031L   23308.94088373  .00017663  00000+0  47379-1 0  9994
2 48220  87.8938 119.8467 0001583  97.1984 262.9326 13.14699435122754
ONEWEB-0187             
1 48221U 21031M   23308.91586992  .00000057  00000+0  11865-3 0  9994
2 48221  87.8937 119.8812 0001522  95.9159 264.2144 13.14500716122768
ONEWEB-0192             
1 48222U 21031N   23308.88949170 -.00003003  00000+0 -81414-2 0  9994
2 48222  87.8971 119.8613 0001194  92.6597 267.4669 13.14470652122673
ONEWEB-0219             
1 48223U 21031P   23308.94623649  .00014445  00000+0  38777-1 0  9995
2 48223  87.8939 119.8482 0001539 103.8722 256.2579 13.14659987122889
